[{"OBJECT_NAME":"BRITE-PL2 (HEWELIUSZ)","OBJECT_ID":"2014-049B","EPOCH":"2026-03-09T20:58:34.162464","MEAN_MOTION":14.94186201,"ECCENTRICITY":0.00154454,"INCLINATION":97.8982,"RA_OF_ASC_NODE":180.2053,"ARG_OF_PERICENTER":80.5248,"MEAN_ANOMALY":279.7716,"EPHEMERIS_TYPE":0,"CLASSIFICATION_TYPE":"U","NORAD_CAT_ID":40119,"ELEMENT_SET_NO":999,"REV_AT_EPOCH":62661,"BSTAR":0.00026097212,"MEAN_MOTION_DOT":2.742e-5,"MEAN_MOTION_DDOT":0},{"OBJECT_NAME":"STARLINK-34479","OBJECT_ID":"2025-126X","EPOCH":"2026-03-09T22:28:15.392064","MEAN_MOTION":14.98343157,"ECCENTRICITY":0.00051811,"INCLINATION":70.0026,"RA_OF_ASC_NODE":34.0385,"ARG_OF_PERICENTER":268.5272,"MEAN_ANOMALY":91.5294,"EPHEMERIS_TYPE":0,"CLASSIFICATION_TYPE":"U","NORAD_CAT_ID":64365,"ELEMENT_SET_NO":999,"REV_AT_EPOCH":4071,"BSTAR":0.001054264,"MEAN_MOTION_DOT":0.00012515,"MEAN_MOTION_DDOT":0}]
